{
  "type": "FeatureCollection",
  "features": [
    {
      "type": "Feature",
      "properties": {
        "norad_id": 30979,
        "name": "FENGYUN 1C DEB",
        "group": "fengyun-1c-debris",
        "lat": -15.741340551057272,
        "lon": 64.95729112912696,
        "alt_km": 532.8885318068578,
        "timestamp": "2025-12-14T18:52:55.783244+00:00",
        "meta_object_name": "FENGYUN 1C DEB",
        "meta_object_id": "1999-025BBV",
        "meta_epoch": "2025-12-13T11:56:43.516032",
        "meta_mean_motion": 14.78800176,
        "meta_eccentricity": 0.01901503,
        "meta_inclination": 97.8301,
        "meta_ra_of_asc_node": 245.9249,
        "meta_arg_of_pericenter": 238.7128,
        "meta_mean_anomaly": 300.1049,
        "meta_ephemeris_type": 0,
        "meta_classification_type": "U",
        "meta_norad_cat_id": 30979,
        "meta_element_set_no": 999,
        "meta_rev_at_epoch": 99156,
        "meta_bstar": 0.0016715092,
        "meta_mean_motion_dot": 0.00016653,
        "meta_mean_motion_ddot": 0,
        "tle_line1": "1 30979U 99025BBV 25347.49772588  .00016653  00000+0  16715-2 0  9996",
        "tle_line2": "2 30979  97.8301 245.9249 0190150 238.7128 300.1049 14.78800176991569"
      },
      "geometry": {
        "type": "Point",
        "coordinates": [
          64.95729112912696,
          -15.741340551057272
        ]
      }
    },
    {
      "type": "Feature",
      "properties": {
        "norad_id": 30982,
        "name": "FENGYUN 1C DEB",
        "group": "fengyun-1c-debris",
        "lat": -26.17226328301173,
        "lon": 154.90279534915854,
        "alt_km": 747.9712896837182,
        "timestamp": "2025-12-14T18:52:55.783254+00:00",
        "meta_object_name": "FENGYUN 1C DEB",
        "meta_object_id": "1999-025BBY",
        "meta_epoch": "2025-12-13T22:11:24.804096",
        "meta_mean_motion": 14.50956021,
        "meta_eccentricity": 0.01803674,
        "meta_inclination": 98.2166,
        "meta_ra_of_asc_node": 338.1324,
        "meta_arg_of_pericenter": 308.9069,
        "meta_mean_anomaly": 78.6672,
        "meta_ephemeris_type": 0,
        "meta_classification_type": "U",
        "meta_norad_cat_id": 30982,
        "meta_element_set_no": 999,
        "meta_rev_at_epoch": 71071,
        "meta_bstar": 0.00046336031,
        "meta_mean_motion_dot": 2.206e-05,
        "meta_mean_motion_ddot": 0,
        "tle_line1": "1 30982U 99025BBY 25347.92459264  .00002206  00000+0  46336-3 0  9993",
        "tle_line2": "2 30982  98.2166 338.1324 0180367 308.9069  78.6672 14.50956021710715"
      },
      "geometry": {
        "type": "Point",
        "coordinates": [
          154.90279534915854,
          -26.17226328301173
        ]
      }
    },
    {
      "type": "Feature",
      "properties": {
        "norad_id": 30984,
        "name": "FENGYUN 1C DEB",
        "group": "fengyun-1c-debris",
        "lat": 79.53500608760558,
        "lon": -26.80564264116904,
        "alt_km": 702.6855480470877,
        "timestamp": "2025-12-14T18:52:55.783265+00:00",
        "meta_object_name": "FENGYUN 1C DEB",
        "meta_object_id": "1999-025BCA",
        "meta_epoch": "2025-12-12T08:33:31.071168",
        "meta_mean_motion": 14.50428795,
        "meta_eccentricity": 0.01274339,
        "meta_inclination": 98.264,
        "meta_ra_of_asc_node": 22.7013,
        "meta_arg_of_pericenter": 9.2632,
        "meta_mean_anomaly": 351.087,
        "meta_ephemeris_type": 0,
        "meta_classification_type": "U",
        "meta_norad_cat_id": 30984,
        "meta_element_set_no": 999,
        "meta_rev_at_epoch": 95158,
        "meta_bstar": 0.0012479232,
        "meta_mean_motion_dot": 5.368e-05,
        "meta_mean_motion_ddot": 0,
        "tle_line1": "1 30984U 99025BCA 25346.35660962  .00005368  00000+0  12479-2 0  9992",
        "tle_line2": "2 30984  98.2640  22.7013 0127433   9.2632 351.0870 14.50428795951589"
      },
      "geometry": {
        "type": "Point",
        "coordinates": [
          -26.80564264116904,
          79.53500608760558
        ]
      }
    },
    {
      "type": "Feature",
      "properties": {
        "norad_id": 30988,
        "name": "FENGYUN 1C DEB",
        "group": "fengyun-1c-debris",
        "lat": -61.16917548203328,
        "lon": 100.5998386329599,
        "alt_km": 493.9086982751387,
        "timestamp": "2025-12-14T18:52:55.783275+00:00",
        "meta_object_name": "FENGYUN 1C DEB",
        "meta_object_id": "1999-025BCE",
        "meta_epoch": "2025-12-13T19:47:23.460576",
        "meta_mean_motion": 15.26353987,
        "meta_eccentricity": 0.01126053,
        "meta_inclination": 98.54,
        "meta_ra_of_asc_node": 295.3431,
        "meta_arg_of_pericenter": 336.54,
        "meta_mean_anomaly": 23.0719,
        "meta_ephemeris_type": 0,
        "meta_classification_type": "U",
        "meta_norad_cat_id": 30988,
        "meta_element_set_no": 999,
        "meta_rev_at_epoch": 99580,
        "meta_bstar": 0.0020604581,
        "meta_mean_motion_dot": 0.00064818,
        "meta_mean_motion_ddot": 0,
        "tle_line1": "1 30988U 99025BCE 25347.82457709  .00064818  00000+0  20605-2 0  9997",
        "tle_line2": "2 30988  98.5400 295.3431 0112605 336.5400  23.0719 15.26353987995801"
      },
      "geometry": {
        "type": "Point",
        "coordinates": [
          100.5998386329599,
          -61.16917548203328
        ]
      }
    },
    {
      "type": "Feature",
      "properties": {
        "norad_id": 30989,
        "name": "FENGYUN 1C DEB",
        "group": "fengyun-1c-debris",
        "lat": -80.31117613395067,
        "lon": 131.4194544920447,
        "alt_km": 918.8954062210805,
        "timestamp": "2025-12-14T18:52:55.783286+00:00",
        "meta_object_name": "FENGYUN 1C DEB",
        "meta_object_id": "1999-025BCF",
        "meta_epoch": "2025-12-13T21:13:03.949536",
        "meta_mean_motion": 14.13942871,
        "meta_eccentricity": 0.0090923,
        "meta_inclination": 99.0531,
        "meta_ra_of_asc_node": 61.465,
        "meta_arg_of_pericenter": 96.6272,
        "meta_mean_anomaly": 264.5259,
        "meta_ephemeris_type": 0,
        "meta_classification_type": "U",
        "meta_norad_cat_id": 30989,
        "meta_element_set_no": 999,
        "meta_rev_at_epoch": 96004,
        "meta_bstar": 0.0016680538,
        "meta_mean_motion_dot": 3.249e-05,
        "meta_mean_motion_ddot": 0,
        "tle_line1": "1 30989U 99025BCF 25347.88407349  .00003249  00000+0  16681-2 0  9999",
        "tle_line2": "2 30989  99.0531  61.4650 0090923  96.6272 264.5259 14.13942871960047"
      },
      "geometry": {
        "type": "Point",
        "coordinates": [
          131.4194544920447,
          -80.31117613395067
        ]
      }
    },
    {
      "type": "Feature",
      "properties": {
        "norad_id": 30993,
        "name": "FENGYUN 1C DEB",
        "group": "fengyun-1c-debris",
        "lat": 8.439804940096414,
        "lon": 79.95430004746717,
        "alt_km": 763.6997275858139,
        "timestamp": "2025-12-14T18:52:55.783296+00:00",
        "meta_object_name": "FENGYUN 1C DEB",
        "meta_object_id": "1999-025BCK",
        "meta_epoch": "2025-12-13T18:27:12.329280",
        "meta_mean_motion": 14.35439831,
        "meta_eccentricity": 0.00162583,
        "meta_inclination": 98.8462,
        "meta_ra_of_asc_node": 80.2352,
        "meta_arg_of_pericenter": 11.2891,
        "meta_mean_anomaly": 140.441,
        "meta_ephemeris_type": 0,
        "meta_classification_type": "U",
        "meta_norad_cat_id": 30993,
        "meta_element_set_no": 999,
        "meta_rev_at_epoch": 96934,
        "meta_bstar": 0.0022176332,
        "meta_mean_motion_dot": 6.34e-05,
        "meta_mean_motion_ddot": 0,
        "tle_line1": "1 30993U 99025BCK 25347.76889270  .00006340  00000+0  22176-2 0  9999",
        "tle_line2": "2 30993  98.8462  80.2352 0016258  11.2891 140.4410 14.35439831969343"
      },
      "geometry": {
        "type": "Point",
        "coordinates": [
          79.95430004746717,
          8.439804940096414
        ]
      }
    },
    {
      "type": "Feature",
      "properties": {
        "norad_id": 30994,
        "name": "FENGYUN 1C DEB",
        "group": "fengyun-1c-debris",
        "lat": -51.69144631234712,
        "lon": 165.9941157182932,
        "alt_km": 854.4492179572471,
        "timestamp": "2025-12-14T18:52:55.783306+00:00",
        "meta_object_name": "FENGYUN 1C DEB",
        "meta_object_id": "1999-025BCL",
        "meta_epoch": "2025-12-13T16:16:16.346208",
        "meta_mean_motion": 14.1177142,
        "meta_eccentricity": 0.00178982,
        "meta_inclination": 98.7,
        "meta_ra_of_asc_node": 356.0948,
        "meta_arg_of_pericenter": 171.985,
        "meta_mean_anomaly": 188.1611,
        "meta_ephemeris_type": 0,
        "meta_classification_type": "U",
        "meta_norad_cat_id": 30994,
        "meta_element_set_no": 999,
        "meta_rev_at_epoch": 96598,
        "meta_bstar": 0.00023467451,
        "meta_mean_motion_dot": 3.86e-06,
        "meta_mean_motion_ddot": 0,
        "tle_line1": "1 30994U 99025BCL 25347.67796697  .00000386  00000+0  23467-3 0  9999",
        "tle_line2": "2 30994  98.7000 356.0948 0017898 171.9850 188.1611 14.11771420965981"
      },
      "geometry": {
        "type": "Point",
        "coordinates": [
          165.9941157182932,
          -51.69144631234712
        ]
      }
    }
  ]
}